1 08820U 76039A   03202.56281585  .00000016  00000-0  10000-3 0  9351
2 08820 109.8034 193.3629 0044512 293.8245  65.7723  6.38664417379258
